satname,norad_id,inclination_deg,eccentricity,mean_motion_rev_per_day,perigee_km,apogee_km,l1,l2
STARLINK-1365,45590,53.0551,0.0001027,15.06404307,546.4871256938213,547.9095895762794,1 45590U 20025BM  25357.53868523  .00000605  00000+0  59461-4 0  9993,2 45590  53.0551  88.4712 0001027  79.0674 281.0430 15.06404307313620
STARLINK-1443,45660,53.0578,0.0001585,15.0638952,546.1460049776615,548.3413506525285,1 45660U 20035D   25357.52396223 -.00000756  00000+0 -31863-4 0  9999,2 45660  53.0578  48.5426 0001585 100.0463 260.0705 15.06389520307259
STARLINK-1446,45663,53.0281,0.0004577,15.38999708,445.9411894450541,452.1908110714903,1 45663U 20035G   25357.74027957  .00069339  00000+0  17626-2 0  9990,2 45663  53.0281 359.1665 0004577  40.8148 319.3197 15.38999708307965
STARLINK-1448,45665,53.0553,0.0001232,15.06387257,546.3974059192615,548.1038214272712,1 45665U 20035J   25357.12956111 -.00002278  00000+0 -13415-3 0  9991,2 45665  53.0553  50.3092 0001232  91.7272 268.3858 15.06387257307187
STARLINK-1451,45668,53.0553,0.0001269,15.06394988,546.348090357681,548.105747720333,1 45668U 20035M   25357.53136596 -.00000951  00000+0 -44937-4 0  9996,2 45668  53.0553  48.8243 0001269  92.0794 268.0341 15.06394988307254
STARLINK-1452,45669,53.0378,0.0002625,15.3244412,466.72546168376357,470.31995803143946,1 45669U 20035N   25357.22639143  .00070748  00000+0  22176-2 0  9997,2 45669  53.0378  22.5102 0002625 184.7517 175.3459 15.32444120307592
STARLINK-1453,45670,53.0546,0.0001242,15.36348896,456.06792106515786,457.7657484377096,1 45670U 20035P   25357.91668980  .00127088  00000+0  34854-2 0  9992,2 45670  53.0546  13.8506 0001242  89.4836 213.8717 15.36348896  5688
STARLINK-1454,45671,53.0549,0.000149,15.06416044,546.1305162169747,548.1942554339503,1 45671U 20035Q   25357.15535130  .00004611  00000+0  32811-3 0  9997,2 45671  53.0549  50.1986 0001490  83.1513 276.9646 15.06416044307185
STARLINK-1456,45673,53.0554,0.0001419,15.30203838,474.23112083453907,476.17609889962023,1 45673U 20035S   25357.91668980  .01721568  00000+0  52408-1 0  9993,2 45673  53.0554  45.7310 0001419  66.4687 204.1920 15.30203838  5489
STARLINK-1457,45674,53.0509,0.0008664,15.49896178,411.14217594491856,422.9168404703414,1 45674U 20035T   25357.74345323  .00100086  00000+0  17458-2 0  9990,2 45674  53.0509  35.2293 0008664   8.8910 351.2250 15.49896178307437
STARLINK-1458,45675,53.055,0.0001509,15.06423039,546.0959231791385,548.1859720637294,1 45675U 20035U   25357.16640662  .00007977  00000+0  55349-3 0  9998,2 45675  53.0550  50.1421 0001509  92.2504 267.8658 15.06423039307169
STARLINK-1460,45676,53.0551,0.0001262,15.0642354,546.265442284941,548.0133820513711,1 45676U 20035V   25357.46864735  .00004487  00000+0  31970-3 0  9998,2 45676  53.0551  48.7880 0001262  90.0155 270.0979 15.06423540307201
STARLINK-1392,45677,53.055,0.0001276,15.06424305,546.2534026443645,548.0207325864194,1 45677U 20035W   25357.41336234  .00006174  00000+0  43273-3 0  9996,2 45677  53.0550  49.0411 0001276  75.8431 284.2700 15.06424305307230
STARLINK-1394,45679,53.0583,0.0001452,15.29990864,474.84438554710505,476.8347803467914,1 45679U 20035Y   25357.91668980  .01094295  00000+0  34433-1 0  9997,2 45679  53.0583  35.8207 0001452  81.8813 276.5507 15.29990864  5834
STARLINK-1402,45685,53.054,0.0005163,15.32258379,465.54078590442896,472.6112180502696,1 45685U 20035AE  25357.72418897  .00073001  00000+0  23000-2 0  9993,2 45685  53.0540  21.7342 0005163 351.4963   8.5949 15.32258379307653
STARLINK-1404,45686,53.0545,0.0001311,15.06408311,546.2781761808101,548.0939958939689,1 45686U 20035AF  25357.50274581  .00000807  00000+0  73064-4 0  9991,2 45686  53.0545  38.6380 0001311  84.4011 275.7128 15.06408311307398
STARLINK-1413,45689,53.0559,0.000134,15.06415851,546.2349871352662,548.0909675291914,1 45689U 20035AJ  25357.32213531  .00003409  00000+0  24750-3 0  9990,2 45689  53.0559  39.4449 0001340  89.9641 270.1501 15.06415851307270
STARLINK-1417,45693,53.054,0.0003294,15.0810952,539.6975897076063,544.2565608604036,1 45693U 20035AN  25357.49703469  .00021226  00000+0  13746-2 0  9996,2 45693  53.0540  38.4476 0003294  17.0786 343.0314 15.08109520307385
STARLINK-1420,45695,53.0555,0.0001555,15.0641135,546.099885749838,548.253658332942,1 45695U 20035AQ  25357.78377428  .00002387  00000+0  17904-3 0  9990,2 45695  53.0555  17.3641 0001555  77.7696 282.3467 15.06411350307710
STARLINK-1422,45696,53.0608,8.6e-05,15.06434957,546.5088510775304,547.6999926020881,1 45696U 20035AR  25357.52855373 -.00001382  00000+0 -73854-4 0  9996,2 45696  53.0608  38.5215 0000860 329.1836  30.9103 15.06434957307385
STARLINK-1351,45697,53.054,0.0001028,15.09566743,536.8119877419522,538.2338474210073,1 45697U 20035AS  25357.91668980  .00055966  00000+0  34375-2 0  9994,2 45697  53.0540  16.7435 0001028  93.9286   0.0369 15.09566743  5788
STARLINK-1398,45699,53.0493,0.0005819,15.62204889,377.3561310300074,385.2227515223649,1 45699U 20035AU  25357.91668980  .00100402  00000+0  11116-2 0  9990,2 45699  53.0493 317.5021 0005819  59.2369 135.6488 15.62204889  5875
STARLINK-1400,45700,53.0547,0.0001591,15.06416435,546.059372546677,548.263002429936,1 45700U 20035AV  25357.21339924  .00004165  00000+0  29824-3 0  9994,2 45700  53.0547  19.9322 0001591  88.5709 271.5462 15.06416435307621
STARLINK-1403,45701,53.0539,0.0001576,15.06401644,546.1150851809953,548.2979534582846,1 45701U 20035AW  25357.77367141  .00000741  00000+0  68631-4 0  9994,2 45701  53.0539  17.4188 0001576  91.5242 268.5927 15.06401644307702
STARLINK-1407,45703,53.0432,0.00069,15.46060004,423.5688222979852,432.9616573889689,1 45703U 20035AY  25357.62739582  .00048953  00000+0  98717-3 0  9996,2 45703  53.0432 322.4561 0006900 221.9902 138.0575 15.46060004308478
STARLINK-1411,45706,53.0517,0.0001613,15.49633408,416.7014692547873,418.89383777401235,1 45706U 20035BB  25356.58478302  .00095463  00000+0  16841-2 0  9998,2 45706  53.0517 354.4363 0001613  69.9570 290.1612 15.49633408307925
STARLINK-1423,45710,53.055,0.000138,15.06405008,546.2405131992173,548.1519051649511,1 45710U 20035BF  25357.79947286  .00001442  00000+0  11568-3 0  9995,2 45710  53.0550  17.3046 0001380  76.1438 283.9705 15.06405008307710
STARLINK-1433,45711,53.0564,0.0001481,15.0640039,546.1847187002986,548.2360065891144,1 45711U 20035BG  25357.78104425  .00000620  00000+0  60547-4 0  9994,2 45711  53.0564  17.3867 0001481  91.6367 268.4791 15.06400390307703
STARLINK-1434,45712,53.047,0.000187,15.19074228,507.34937911083307,509.9250326638348,1 45712U 20035BH  25357.75666612  .00009461  00000+0  46005-3 0  9997,2 45712  53.0470   9.5799 0001870 293.7229  66.3569 15.19074228307823
STARLINK-1465,45731,53.0543,0.0001557,15.06407263,546.1110246741837,548.2675712833752,1 45731U 20038B   25357.01805018  .00002283  00000+0  17208-3 0  9993,2 45731  53.0543 220.8090 0001557  92.3116 267.8051 15.06407263304632
STARLINK-1471,45735,53.0491,0.0001376,15.43475935,434.92231399422144,436.7975259465975,1 45735U 20038F   25356.71985457  .00022414  00000+0  50048-3 0  9996,2 45735  53.0491 149.1860 0001376  96.7305 263.3857 15.43475935305620
STARLINK-1474,45738,53.0319,0.0002457,15.78506244,333.0228927109547,336.32156716654754,1 45738U 20038J   25357.91668980  .00045093  00000+0  25689-3 0  9992,2 45738  53.0319  89.0563 0002457  36.5437 318.7479 15.78506244  6037
STARLINK-1480,45741,53.0535,8e-05,15.24227934,492.55507863061666,493.65447731509266,1 45741U 20038M   25357.91668980  .02085728  00000+0  75780-1 0  9992,2 45741  53.0535 216.0929 0000800  85.9065 201.7674 15.24227934  5780
STARLINK-1500,45744,53.0356,0.0002318,15.30376863,473.0985546272914,476.2755238518821,1 45744U 20038Q   25357.83583168  .00017769  00000+0  60726-3 0  9994,2 45744  53.0356 187.3759 0002318  69.6893 290.4355 15.30376863305180
STARLINK-1504,45746,53.0253,6.5e-05,15.46647708,426.09860291977293,426.9832110476809,1 45746U 20038S   25357.91668980  .00096662  00000+0  18916-2 0  9993,2 45746  53.0253 146.1837 0000650  98.3401 130.8051 15.46647708  5946
STARLINK-1506,45747,53.0705,0.0003098,15.23500687,493.16188600474925,497.42066216337207,1 45747U 20038T   25357.82666324  .00008876  00000+0  38054-3 0  9990,2 45747  53.0705 192.5573 0003098  63.8053 296.3261 15.23500687305112
STARLINK-1464,45751,53.0539,0.0001445,15.06400528,546.2092270620105,548.2106523275816,1 45751U 20038X   25356.86877765  .00000868  00000+0  77127-4 0  9999,2 45751  53.0539 201.4803 0001445 100.2849 259.8303 15.06400528304902
STARLINK-1477,45754,53.052,0.0007128,15.0949868,532.8011692861737,542.6604304216453,1 45754U 20038AA  25357.81506794  .00017759  00000+0  11104-2 0  9997,2 45754  53.0520 196.5598 0007128 125.6481 234.5174 15.09498680305059
STARLINK-1478,45755,53.0536,0.0001588,15.06407237,546.0896358356213,548.2891194931672,1 45755U 20038AB  25357.83080284  .00001503  00000+0  11972-3 0  9995,2 45755  53.0536 197.1581 0001588  95.1576 264.9594 15.06407237305032
STARLINK-1484,45756,53.0136,0.0002388,15.71777463,352.2093581127365,355.424539318642,1 45756U 20038AC  25357.53791354  .00096212  00000+0  72433-3 0  9990,2 45756  53.0136  81.1617 0002388  17.8652 342.2448 15.71777463306634
STARLINK-1493,45759,53.0544,0.0001514,15.06398444,546.1678283645906,548.2648253519637,1 45759U 20038AF  25356.89089514  .00001278  00000+0  10465-3 0  9994,2 45759  53.0544 201.3779 0001514  91.3400 268.7763 15.06398444304897
STARLINK-1494,45760,53.0517,0.0004234,15.56185648,395.8389690975828,401.5776016852524,1 45760U 20038AG  25357.21416544  .00040989  00000+0  57856-3 0  9997,2 45760  53.0517 167.2856 0004234 169.2962 190.8140 15.56185648305413
STARLINK-1502,45764,53.054,0.0001557,15.06403962,546.1211401257078,548.2776898853417,1 45764U 20038AL  25357.85291757  .00001085  00000+0  91750-4 0  9994,2 45764  53.0540 197.0643 0001557  91.0878 269.0289 15.06403962305051
